#aV2007  3 19  0  0   .00000000      96 DD+AD WGS84 FIT  NGA
## 1419  86400.00000000   900.00000000 54178  .0000000000000
+   30     1  2  3  4  5  6  7  8  9 10 11 12 13 14 16 17 18
+         19 20 21 22 23 24 25 26 27 28 29 30 31  0  0  0  0
+          0  0  0  0  0  0  0  0  0  0  0  0  0  0  0  0  0
+          0  0  0  0  0  0  0  0  0  0  0  0  0  0  0  0  0
+          0  0  0  0  0  0  0  0  0  0  0  0  0  0  0  0  0
++         0  0  0  0  0  0  0  0  0  0  0  0  0  0  0  0  0
++         0  0  0  0  0  0  0  0  0  0  0  0  0  0  0  0  0
++         0  0  0  0  0  0  0  0  0  0  0  0  0  0  0  0  0
++         0  0  0  0  0  0  0  0  0  0  0  0  0  0  0  0  0
++         0  0  0  0  0  0  0  0  0  0  0  0  0  0  0  0  0
%c cc cc ccc ccc cccc cccc cccc cccc ccccc ccccc ccccc ccccc
%c cc cc ccc ccc cccc cccc cccc cccc ccccc ccccc ccccc ccccc
%f  0.0000000  0.000000000  0.00000000000  0.000000000000000
%f  0.0000000  0.000000000  0.00000000000  0.000000000000000
%i    0    0    0    0      0      0      0      0         0
%i    0    0    0    0      0      0      0      0         0
/*      NGA, ST. LOUIS,MO.                                  
/*   EPHEMERIS COMPUTED FROM  3 DAYS OF DATA                
/* CCCCCCCCCCCCCCCCCCCCCCCCCCCCCCCCCCCCCCCCCCCCCCCCCCCCCCCCC
/* CCCCCCCCCCCCCCCCCCCCCCCCCCCCCCCCCCCCCCCCCCCCCCCCCCCCCCCCC
*  2007  3 19 21 45   .00000000                                                 
P  1 -20239.995091 -12120.204274 -12057.545375    114.768842                    
V  1  -8675.072255 -13025.470151  27134.632554       .024705                    
P  2  15811.455657   1351.700932 -21505.133442     91.740400                    
V  2  -7581.828303  25759.369684  -4263.976108       .032432                    
P  3 -22138.895793  -6866.419013  13052.332388     30.190235                    
V  3 -10533.347840 -13483.648268 -24245.050371       .055847                    
P  4   9456.199903  15520.467471 -19314.265588      8.355265                    
V  4  -9393.638453  22737.335048  14077.403774       .012072                    
P  5  18293.371556 -14956.585240 -12210.961075     42.470438                    
V  5  15436.802252  -1679.785067  25820.077874      -.013346                    
P  6   1639.966967 -18360.219861 -18914.500615     96.639607                    
V  6  18362.995311  16354.289639 -14191.499735       .216575                    
P  7  -3316.486715 -20227.455284 -16509.585650    378.049028                    
V  7  17234.394406  13430.826217 -19594.333494      -.139953                    
P  8   1201.614145  22638.918428  13355.147395   -100.581416                    
V  8  -8060.711029  15450.712796 -25668.926588      -.013633                    
P  9  14391.121932 -17375.922740  13244.002934     62.308942                    
V  9  -2436.568723  17877.188627  25235.777708       .016610                    
P 10  26025.516665   -638.119960  -6182.932410     99.055835                    
V 10  -7093.879029   3535.473088 -30460.750988       .005065                    
P 11 -12982.059785  19279.017551  12492.696200     10.721470                    
V 11  -1698.924458 -16754.928796  24178.807636       .012377                    
P 12  21080.004409 -12115.291941 -10523.888416    -44.591298                    
V 12  13767.837561   -422.829334  27821.266932       .009598                    
P 13   1573.060590  19760.128264 -17797.614952    154.722240                    
V 13 -15181.243467 -16385.091753 -19593.337783       .037991                    
P 14 -16002.918629 -21079.413678   2733.024721     12.333487                    
V 14   3605.706114   1303.065901  32063.782914       .015260                    
P 16 -23674.965226  -3445.764489 -11595.877385    132.333789                    
V 16  14067.160830  -5128.629644 -26860.260936       .034241                    
P 17  15366.152037  21368.792056   4036.116822     74.726641                    
V 17  -5404.051471  -2007.198426  31115.319295      -.013526                    
P 18   1573.509409 -15709.424039  21455.973501   -252.843180                    
V 18  26710.907197  -3970.328939  -5217.211799       .004257                    
P 19 -17317.471080   1081.569667  20235.226499     16.290249                    
V 19 -15068.064681 -20543.714942 -11753.054777       .038796                    
P 20 -19795.599330  13166.715964 -11894.521159    -23.002648                    
V 20 -15175.080793    828.101700  26438.879178      -.002660                    
P 21   3778.284531 -25131.531367   6727.213561     73.780549                    
V 21   6434.955847  -6802.674479 -30037.555114       .008022                    
P 22 -11173.894728 -12951.189770  20477.402807    172.815367                    
V 22  25181.290724  -5161.268334  10533.795812       .019568                    
P 23  -8608.162928  12676.115423 -21757.417422    155.278208                    
V 23 -18725.308769 -20040.202699  -4472.252932       .020181                    
P 24  12617.105557 -22922.680989  -5197.070907     86.171876                    
V 24     70.308747   7312.297431 -30549.515069       .028578                    
P 25 -15725.239082   9048.110944 -19082.735969    288.731387                    
V 25   4046.915213 -24706.193569 -14587.167444      -.228560                    
P 26  18012.040370   1861.987912  19213.403623    -97.397380                    
V 26  15653.099612  19562.331642 -15659.619488      -.192835                    
P 27  -2840.225960  25868.894169   5216.458831    100.241561                    
V 27  -4179.083893   4983.840378 -31039.902368       .021865                    
P 28   7264.742845  14036.585062  21713.927759      5.035481                    
V 28 -26221.436158   5316.142893   5073.085259      -.007854                    
P 29  19930.418370   5069.533393  17226.384460       .531289                    
V 29  13601.732643  16354.808734 -20461.938499       .006224                    
P 30  10556.818720 -16338.384025 -18338.594956     28.536587                    
V 30  22488.679417  -3926.653887  16834.871378       .011552                    
P 31 -10291.228570 -13797.866600 -20007.933068     16.317235                    
V 31   8898.500536 -24321.366104  12136.453484       .020477                    
EOF
